GLOBALSTAR M045         
1 25676U 99019A   25097.32001175 -.00000051  00000+0  37897-3 0  9999
2 25676  51.9947 147.2565 0000627 107.5655 332.5666 12.27060210184697
GLOBALSTAR M019         
1 25677U 99019B   25097.61878054  .00000041  00000+0  13626-2 0  9991
2 25677  51.9872 271.8042 0001635 145.7860 288.4059 12.13877129176574
GLOBALSTAR M044         
1 25678U 99019C   25097.62793113 -.00000097  00000+0 -18057-3 0  9992
2 25678  51.9963 214.3123 0005818 260.5558 112.7177 11.90248315162922
GLOBALSTAR M042         
1 25679U 99019D   25097.56399015 -.00000058  00000+0  32108-3 0  9998
2 25679  52.0006 250.3249 0003535 144.6058 291.1598 12.22081535176629
GLOBALSTAR M025         
1 25770U 99031A   25097.09642792 -.00000069  00000+0 -36642-4 0  9996
2 25770  51.9841 323.9606 0002046  49.1180 121.6428 11.22558228473728
GLOBALSTAR M049         
1 25771U 99031B   25097.16248564 -.00000055  00000+0  36531-3 0  9994
2 25771  51.9912 354.9997 0002135 250.0013 110.0554 11.12113504109521
GLOBALSTAR M047         
1 25772U 99031C   25097.23835333 -.00000067  00000+0  74579-4 0  9997
2 25772  51.9874 358.5756 0016582 139.2253 220.9797 11.31927012463078
GLOBALSTAR M052         
1 25773U 99031D   25097.30718061 -.00000088  00000+0 -73575-3 0  9992
2 25773  51.9835 104.3407 0002368  55.6442 317.5039 11.15058749470607
